[
  {
    "OBJECT_NAME": "IRIDIUM 33 DEB",
    "OBJECT_ID": "1997-051ZL",
    "EPOCH": "2023-03-22T15:32:59.575200",
    "MEAN_MOTION": 14.45478822,
    "ECCENTRICITY": 0.0066859,
    "INCLINATION": 86.2523,
    "RA_OF_ASC_NODE": 59.4411,
    "ARG_OF_PERICENTER": 338.3492,
    "MEAN_ANOMALY": 21.4885,
    "EPHEMERIS_TYPE": 0,
    "CLASSIFICATION_TYPE": "U",
    "NORAD_CAT_ID": 38236,
    "ELEMENT_SET_NO": 999,
    "REV_AT_EPOCH": 47129,
    "BSTAR": 0.0077336,
    "MEAN_MOTION_DOT": 0.00028114,
    "MEAN_MOTION_DDOT": 0
  },
  {
    "OBJECT_NAME": "IRIDIUM 33 DEB",
    "OBJECT_ID": "1997-051ZR",
    "EPOCH": "2023-03-22T06:02:00.637728",
    "MEAN_MOTION": 14.45029258,
    "ECCENTRICITY": 0.0005212,
    "INCLINATION": 86.3233,
    "RA_OF_ASC_NODE": 66.1308,
    "ARG_OF_PERICENTER": 113.6005,
    "MEAN_ANOMALY": 246.5745,
    "EPHEMERIS_TYPE": 0,
    "CLASSIFICATION_TYPE": "U",
    "NORAD_CAT_ID": 38241,
    "ELEMENT_SET_NO": 999,
    "REV_AT_EPOCH": 69429,
    "BSTAR": 0.0012103,
    "MEAN_MOTION_DOT": 4.244e-5,
    "MEAN_MOTION_DDOT": 0
  },
  {
    "OBJECT_NAME": "IRIDIUM 33 DEB",
    "OBJECT_ID": "1997-051ZT",
    "EPOCH": "2023-03-23T09:08:58.760160",
    "MEAN_MOTION": 14.8058454,
    "ECCENTRICITY": 0.0058603,
    "INCLINATION": 86.3756,
    "RA_OF_ASC_NODE": 63.9884,
    "ARG_OF_PERICENTER": 160.3822,
    "MEAN_ANOMALY": 199.9674,
    "EPHEMERIS_TYPE": 0,
    "CLASSIFICATION_TYPE": "U",
    "NORAD_CAT_ID": 38243,
    "ELEMENT_SET_NO": 999,
    "REV_AT_EPOCH": 65767,
    "BSTAR": 0.0066646,
    "MEAN_MOTION_DOT": 0.00052981,
    "MEAN_MOTION_DDOT": 0
  },
  {
    "OBJECT_NAME": "IRIDIUM 33 DEB",
    "OBJECT_ID": "1997-051ZV",
    "EPOCH": "2023-03-22T10:28:37.712640",
    "MEAN_MOTION": 14.44781168,
    "ECCENTRICITY": 0.0087024,
    "INCLINATION": 86.3497,
    "RA_OF_ASC_NODE": 132.7291,
    "ARG_OF_PERICENTER": 64.0427,
    "MEAN_ANOMALY": 296.9708,
    "EPHEMERIS_TYPE": 0,
    "CLASSIFICATION_TYPE": "U",
    "NORAD_CAT_ID": 38468,
    "ELEMENT_SET_NO": 999,
    "REV_AT_EPOCH": 67514,
    "BSTAR": 0.0016732,
    "MEAN_MOTION_DOT": 6.109e-5,
    "MEAN_MOTION_DDOT": 0
  },
  {
    "OBJECT_NAME": "IRIDIUM 33 DEB",
    "OBJECT_ID": "1997-051ZW",
    "EPOCH": "2023-03-20T22:05:40.379136",
    "MEAN_MOTION": 14.2827955,
    "ECCENTRICITY": 0.0164171,
    "INCLINATION": 86.2806,
    "RA_OF_ASC_NODE": 155.8907,
    "ARG_OF_PERICENTER": 162.2868,
    "MEAN_ANOMALY": 198.4145,
    "EPHEMERIS_TYPE": 0,
    "CLASSIFICATION_TYPE": "U",
    "NORAD_CAT_ID": 38469,
    "ELEMENT_SET_NO": 999,
    "REV_AT_EPOCH": 71695,
    "BSTAR": 0.0078526,
    "MEAN_MOTION_DOT": 0.00022695,
    "MEAN_MOTION_DDOT": 0
  },
  {
    "OBJECT_NAME": "IRIDIUM 33 DEB",
    "OBJECT_ID": "1997-051ZX",
    "EPOCH": "2023-03-18T15:14:45.149856",
    "MEAN_MOTION": 14.56593299,
    "ECCENTRICITY": 0.0074639,
    "INCLINATION": 86.4879,
    "RA_OF_ASC_NODE": 214.6273,
    "ARG_OF_PERICENTER": 27.3676,
    "MEAN_ANOMALY": 333.1433,
    "EPHEMERIS_TYPE": 0,
    "CLASSIFICATION_TYPE": "U",
    "NORAD_CAT_ID": 38470,
    "ELEMENT_SET_NO": 999,
    "REV_AT_EPOCH": 72775,
    "BSTAR": 0.0076265,
    "MEAN_MOTION_DOT": 0.00035454,
    "MEAN_MOTION_DDOT": 0
  },
  {
    "OBJECT_NAME": "IRIDIUM 33 DEB",
    "OBJECT_ID": "1997-051AAB",
    "EPOCH": "2023-03-22T06:13:33.695328",
    "MEAN_MOTION": 14.43036682,
    "ECCENTRICITY": 0.0028804,
    "INCLINATION": 86.3385,
    "RA_OF_ASC_NODE": 81.1762,
    "ARG_OF_PERICENTER": 158.0276,
    "MEAN_ANOMALY": 202.2167,
    "EPHEMERIS_TYPE": 0,
    "CLASSIFICATION_TYPE": "U",
    "NORAD_CAT_ID": 38474,
    "ELEMENT_SET_NO": 999,
    "REV_AT_EPOCH": 50911,
    "BSTAR": 0.00073765,
    "MEAN_MOTION_DOT": 2.502e-5,
    "MEAN_MOTION_DDOT": 0
  },
  {
    "OBJECT_NAME": "IRIDIUM 33 DEB",
    "OBJECT_ID": "1997-051AAE",
    "EPOCH": "2023-03-19T12:12:03.520512",
    "MEAN_MOTION": 13.43871135,
    "ECCENTRICITY": 0.046004,
    "INCLINATION": 86.4113,
    "RA_OF_ASC_NODE": 109.0483,
    "ARG_OF_PERICENTER": 206.8715,
    "MEAN_ANOMALY": 150.7925,
    "EPHEMERIS_TYPE": 0,
    "CLASSIFICATION_TYPE": "U",
    "NORAD_CAT_ID": 38477,
    "ELEMENT_SET_NO": 999,
    "REV_AT_EPOCH": 63178,
    "BSTAR": 0.0059499,
    "MEAN_MOTION_DOT": 6.503e-5,
    "MEAN_MOTION_DDOT": 0
  },
  {
    "OBJECT_NAME": "IRIDIUM 33 DEB",
    "OBJECT_ID": "1997-051AAG",
    "EPOCH": "2023-03-19T19:24:01.546272",
    "MEAN_MOTION": 14.53777333,
    "ECCENTRICITY": 0.0008706,
    "INCLINATION": 86.4008,
    "RA_OF_ASC_NODE": 111.3047,
    "ARG_OF_PERICENTER": 351.6596,
    "MEAN_ANOMALY": 8.4465,
    "EPHEMERIS_TYPE": 0,
    "CLASSIFICATION_TYPE": "U",
    "NORAD_CAT_ID": 39594,
    "ELEMENT_SET_NO": 999,
    "REV_AT_EPOCH": 49190,
    "BSTAR": 0.002132,
    "MEAN_MOTION_DOT": 8.97e-5,
    "MEAN_MOTION_DDOT": 0
  },
  {
    "OBJECT_NAME": "IRIDIUM 33 DEB",
    "OBJECT_ID": "1997-051AAJ",
    "EPOCH": "2023-03-23T00:24:02.081664",
    "MEAN_MOTION": 14.31634049,
    "ECCENTRICITY": 0.0078314,
    "INCLINATION": 85.97,
    "RA_OF_ASC_NODE": 287.0529,
    "ARG_OF_PERICENTER": 222.8906,
    "MEAN_ANOMALY": 136.6164,
    "EPHEMERIS_TYPE": 0,
    "CLASSIFICATION_TYPE": "U",
    "NORAD_CAT_ID": 39777,
    "ELEMENT_SET_NO": 999,
    "REV_AT_EPOCH": 48543,
    "BSTAR": 0.0030911,
    "MEAN_MOTION_DOT": 8.537e-5,
    "MEAN_MOTION_DDOT": 0
  },
  {
    "OBJECT_NAME": "IRIDIUM 33 DEB",
    "OBJECT_ID": "1997-051AAK",
    "EPOCH": "2023-03-22T19:10:35.290848",
    "MEAN_MOTION": 14.42452455,
    "ECCENTRICITY": 0.0012318,
    "INCLINATION": 86.3785,
    "RA_OF_ASC_NODE": 110.7665,
    "ARG_OF_PERICENTER": 100.1783,
    "MEAN_ANOMALY": 260.0807,
    "EPHEMERIS_TYPE": 0,
    "CLASSIFICATION_TYPE": "U",
    "NORAD_CAT_ID": 39778,
    "ELEMENT_SET_NO": 999,
    "REV_AT_EPOCH": 46281,
    "BSTAR": 0.0012039,
    "MEAN_MOTION_DOT": 4.007e-5,
    "MEAN_MOTION_DDOT": 0
  },
  {
    "OBJECT_NAME": "IRIDIUM 33 DEB",
    "OBJECT_ID": "1997-051AAL",
    "EPOCH": "2023-03-14T18:49:21.252864",
    "MEAN_MOTION": 14.44029755,
    "ECCENTRICITY": 0.0054407,
    "INCLINATION": 86.2924,
    "RA_OF_ASC_NODE": 87.9227,
    "ARG_OF_PERICENTER": 335.8123,
    "MEAN_ANOMALY": 149.8169,
    "EPHEMERIS_TYPE": 0,
    "CLASSIFICATION_TYPE": "U",
    "NORAD_CAT_ID": 39779,
    "ELEMENT_SET_NO": 999,
    "REV_AT_EPOCH": 56526,
    "BSTAR": 0.004256,
    "MEAN_MOTION_DOT": 0.00014854,
    "MEAN_MOTION_DDOT": 0
  },
  {
    "OBJECT_NAME": "IRIDIUM 33 DEB",
    "OBJECT_ID": "1997-051AAN",
    "EPOCH": "2023-03-22T08:30:25.278336",
    "MEAN_MOTION": 13.94318098,
    "ECCENTRICITY": 0.024564,
    "INCLINATION": 86.3809,
    "RA_OF_ASC_NODE": 298.6155,
    "ARG_OF_PERICENTER": 143.5562,
    "MEAN_ANOMALY": 342.6404,
    "EPHEMERIS_TYPE": 0,
    "CLASSIFICATION_TYPE": "U",
    "NORAD_CAT_ID": 39781,
    "ELEMENT_SET_NO": 999,
    "REV_AT_EPOCH": 32173,
    "BSTAR": 0.0032814,
    "MEAN_MOTION_DOT": 5.624e-5,
    "MEAN_MOTION_DDOT": 0
  },
  {
    "OBJECT_NAME": "IRIDIUM 33 DEB",
    "OBJECT_ID": "1997-051AAQ",
    "EPOCH": "2023-03-22T01:07:36.486048",
    "MEAN_MOTION": 14.44633278,
    "ECCENTRICITY": 0.0061217,
    "INCLINATION": 86.1717,
    "RA_OF_ASC_NODE": 5.1352,
    "ARG_OF_PERICENTER": 345.8078,
    "MEAN_ANOMALY": 25.2611,
    "EPHEMERIS_TYPE": 0,
    "CLASSIFICATION_TYPE": "U",
    "NORAD_CAT_ID": 39783,
    "ELEMENT_SET_NO": 999,
    "REV_AT_EPOCH": 46169,
    "BSTAR": 0.0041907,
    "MEAN_MOTION_DOT": 0.00014883,
    "MEAN_MOTION_DDOT": 0
  },
  {
    "OBJECT_NAME": "IRIDIUM 33 DEB",
    "OBJECT_ID": "1997-051AAT",
    "EPOCH": "2023-03-23T03:59:42.080928",
    "MEAN_MOTION": 15.19815101,
    "ECCENTRICITY": 0.001757,
    "INCLINATION": 86.3555,
    "RA_OF_ASC_NODE": 39.0451,
    "ARG_OF_PERICENTER": 116.7232,
    "MEAN_ANOMALY": 304.6483,
    "EPHEMERIS_TYPE": 0,
    "CLASSIFICATION_TYPE": "U",
    "NORAD_CAT_ID": 39786,
    "ELEMENT_SET_NO": 999,
    "REV_AT_EPOCH": 57552,
    "BSTAR": 0.017049,
    "MEAN_MOTION_DOT": 0.00385389,
    "MEAN_MOTION_DDOT": 0
  },
  {
    "OBJECT_NAME": "IRIDIUM 33 DEB",
    "OBJECT_ID": "1997-051AAU",
    "EPOCH": "2023-03-21T23:31:59.329056",
    "MEAN_MOTION": 14.6138477,
    "ECCENTRICITY": 0.0039053,
    "INCLINATION": 86.2041,
    "RA_OF_ASC_NODE": 345.0759,
    "ARG_OF_PERICENTER": 61.5751,
    "MEAN_ANOMALY": 309.7925,
    "EPHEMERIS_TYPE": 0,
    "CLASSIFICATION_TYPE": "U",
    "NORAD_CAT_ID": 39787,
    "ELEMENT_SET_NO": 999,
    "REV_AT_EPOCH": 17577,
    "BSTAR": 0.0040289,
    "MEAN_MOTION_DOT": 0.000202,
    "MEAN_MOTION_DDOT": 0
  },
  {
    "OBJECT_NAME": "IRIDIUM 33 DEB",
    "OBJECT_ID": "1997-051AAX",
    "EPOCH": "2023-03-16T21:53:50.750880",
    "MEAN_MOTION": 14.78577443,
    "ECCENTRICITY": 0.0032005,
    "INCLINATION": 86.1879,
    "RA_OF_ASC_NODE": 308.211,
    "ARG_OF_PERICENTER": 276.2843,
    "MEAN_ANOMALY": 83.4732,
    "EPHEMERIS_TYPE": 0,
    "CLASSIFICATION_TYPE": "U",
    "NORAD_CAT_ID": 39790,
    "ELEMENT_SET_NO": 999,
    "REV_AT_EPOCH": 45972,
    "BSTAR": 0.0044015,
    "MEAN_MOTION_DOT": 0.000326,
    "MEAN_MOTION_DDOT": 0
  },
  {
    "OBJECT_NAME": "IRIDIUM 33 DEB",
    "OBJECT_ID": "1997-051AAZ",
    "EPOCH": "2023-03-20T05:52:21.629856",
    "MEAN_MOTION": 14.14402242,
    "ECCENTRICITY": 0.0168161,
    "INCLINATION": 86.4099,
    "RA_OF_ASC_NODE": 269.2529,
    "ARG_OF_PERICENTER": 50.4658,
    "MEAN_ANOMALY": 311.1251,
    "EPHEMERIS_TYPE": 0,
    "CLASSIFICATION_TYPE": "U",
    "NORAD_CAT_ID": 39792,
    "ELEMENT_SET_NO": 999,
    "REV_AT_EPOCH": 45130,
    "BSTAR": 0.0049968,
    "MEAN_MOTION_DOT": 0.0001098,
    "MEAN_MOTION_DDOT": 0
  }
]